{"type": "FeatureCollection", "features": [ {"type": "Feature", "properties": {"norad_id": 66520, "name": "STARLINK-35952", "group": "last-30-days", "lat": 35.3533270662009, "lon": -127.79029339000117, "alt_km": 345.3446956186044, "timestamp": "2025-12-04T15:47:52.869489+00:00", "meta": {"OBJECT_NAME": "STARLINK-35952", "OBJECT_ID": "2025-265E", "EPOCH": "2025-12-04T08:00:01.999872", "MEAN_MOTION": 15.74416567, "ECCENTRICITY": 0.00014354, "INCLINATION": 42.9994, "RA_OF_ASC_NODE": 103.7609, "ARG_OF_PERICENTER": 281.2308, "MEAN_ANOMALY": 157.6944, "EPHEMERIS_TYPE": 0, "CLASSIFICATION_TYPE": "U", "NORAD_CAT_ID": 66520, "ELEMENT_SET_NO": 999, "REV_AT_EPOCH": 364, "BSTAR": -0.013600961, "MEAN_MOTION_DOT": -0.01784388, "MEAN_MOTION_DDOT": 0}, "tle": {"line1": "1 66520U 25265E   25338.33335648 -.01784388  00000+0 -13601-1 0  9997", "line2": "2 66520  42.9994 103.7609 0001435 281.2308 157.6944 15.74416567  3646"}}, "geometry": {"type": "Point", "coordinates": [-127.79029339000117, 35.3533270662009]}}, {"type": "Feature", "properties": {"norad_id": 66521, "name": "STARLINK-35915", "group": "last-30-days", "lat": 34.489311325838344, "lon": -125.71170631330321, "alt_km": 344.89217056479265, "timestamp": "2025-12-04T15:47:52.869503+00:00", "meta": {"OBJECT_NAME": "STARLINK-35915", "OBJECT_ID": "2025-265F", "EPOCH": "2025-12-04T08:00:01.999872", "MEAN_MOTION": 15.74401307, "ECCENTRICITY": 8.631e-05, "INCLINATION": 42.9994, "RA_OF_ASC_NODE": 103.7561, "ARG_OF_PERICENTER": 250.9007, "MEAN_ANOMALY": 189.9494, "EPHEMERIS_TYPE": 0, "CLASSIFICATION_TYPE": "U", "NORAD_CAT_ID": 66521, "ELEMENT_SET_NO": 999, "REV_AT_EPOCH": 364, "BSTAR": -0.013452848, "MEAN_MOTION_DOT": -0.01765885, "MEAN_MOTION_DDOT": 0}, "tle": {"line1": "1 66521U 25265F   25338.33335648 -.01765885  00000+0 -13453-1 0  9994", "line2": "2 66521  42.9994 103.7561 0000863 250.9007 189.9494 15.74401307  3641"}}, "geometry": {"type": "Point", "coordinates": [-125.71170631330321, 34.489311325838344]}}, {"type": "Feature", "properties": {"norad_id": 66522, "name": "STARLINK-35946", "group": "last-30-days", "lat": 33.58240377707397, "lon": -123.65816850922579, "alt_km": 345.5548571288182, "timestamp": "2025-12-04T15:47:52.869513+00:00", "meta": {"OBJECT_NAME": "STARLINK-35946", "OBJECT_ID": "2025-265G", "EPOCH": "2025-12-04T08:00:01.999872", "MEAN_MOTION": 15.74421415, "ECCENTRICITY": 0.0001446, "INCLINATION": 42.9995, "RA_OF_ASC_NODE": 103.7514, "ARG_OF_PERICENTER": 270.9947, "MEAN_ANOMALY": 171.7843, "EPHEMERIS_TYPE": 0, "CLASSIFICATION_TYPE": "U", "NORAD_CAT_ID": 66522, "ELEMENT_SET_NO": 999, "REV_AT_EPOCH": 364, "BSTAR": -0.013841971, "MEAN_MOTION_DOT": -0.01812341, "MEAN_MOTION_DDOT": 0}, "tle": {"line1": "1 66522U 25265G   25338.33335648 -.01812341  00000+0 -13842-1 0  9997", "line2": "2 66522  42.9995 103.7514 0001446 270.9947 171.7843 15.74421415  3643"}}, "geometry": {"type": "Point", "coordinates": [-123.65816850922579, 33.58240377707397]}}, {"type": "Feature", "properties": {"norad_id": 66523, "name": "STARLINK-35969", "group": "last-30-days", "lat": 32.65500442775544, "lon": -121.67508111927724, "alt_km": 345.16622457421636, "timestamp": "2025-12-04T15:47:52.869523+00:00", "meta": {"OBJECT_NAME": "STARLINK-35969", "OBJECT_ID": "2025-265H", "EPOCH": "2025-12-04T08:00:01.999872", "MEAN_MOTION": 15.74429834, "ECCENTRICITY": 8.998e-05, "INCLINATION": 42.9996, "RA_OF_ASC_NODE": 103.7467, "ARG_OF_PERICENTER": 251.719, "MEAN_ANOMALY": 192.946, "EPHEMERIS_TYPE": 0, "CLASSIFICATION_TYPE": "U", "NORAD_CAT_ID": 66523, "ELEMENT_SET_NO": 999, "REV_AT_EPOCH": 364, "BSTAR": -0.013705129, "MEAN_MOTION_DOT": -0.01796835, "MEAN_MOTION_DDOT": 0}, "tle": {"line1": "1 66523U 25265H   25338.33335648 -.01796835  00000+0 -13705-1 0  9995", "line2": "2 66523  42.9996 103.7467 0000899 251.7190 192.9460 15.74429834  3643"}}, "geometry": {"type": "Point", "coordinates": [-121.67508111927724, 32.65500442775544]}}, {"type": "Feature", "properties": {"norad_id": 66524, "name": "STARLINK-35687", "group": "last-30-days", "lat": 31.68785004950827, "lon": -119.71641755449113, "alt_km": 345.7431606161945, "timestamp": "2025-12-04T15:47:52.869533+00:00", "meta": {"OBJECT_NAME": "STARLINK-35687", "OBJECT_ID": "2025-265J", "EPOCH": "2025-12-04T08:00:01.999872", "MEAN_MOTION": 15.74429896, "ECCENTRICITY": 0.00013013, "INCLINATION": 42.9994, "RA_OF_ASC_NODE": 103.7416, "ARG_OF_PERICENTER": 276.193, "MEAN_ANOMALY": 170.3926, "EPHEMERIS_TYPE": 0, "CLASSIFICATION_TYPE": "U", "NORAD_CAT_ID": 66524, "ELEMENT_SET_NO": 999, "REV_AT_EPOCH": 364, "BSTAR": -0.01372319, "MEAN_MOTION_DOT": -0.01799219, "MEAN_MOTION_DDOT": 0}, "tle": {"line1": "1 66524U 25265J   25338.33335648 -.01799219  00000+0 -13723-1 0  9995", "line2": "2 66524  42.9994 103.7416 0001301 276.1930 170.3926 15.74429896  3643"}}, "geometry": {"type": "Point", "coordinates": [-119.71641755449113, 31.68785004950827]}}, {"type": "Feature", "properties": {"norad_id": 66525, "name": "STARLINK-35975", "group": "last-30-days", "lat": 30.68991066797853, "lon": -117.79528546056073, "alt_km": 345.5648952047695, "timestamp": "2025-12-04T15:47:52.869543+00:00", "meta": {"OBJECT_NAME": "STARLINK-35975", "OBJECT_ID": "2025-265K", "EPOCH": "2025-12-04T08:00:01.999872", "MEAN_MOTION": 15.74415356, "ECCENTRICITY": 0.00010763, "INCLINATION": 42.9995, "RA_OF_ASC_NODE": 103.737, "ARG_OF_PERICENTER": 256.4139, "MEAN_ANOMALY": 192.121, "EPHEMERIS_TYPE": 0, "CLASSIFICATION_TYPE": "U", "NORAD_CAT_ID": 66525, "ELEMENT_SET_NO": 999, "REV_AT_EPOCH": 364, "BSTAR": -0.013822955, "MEAN_MOTION_DOT": -0.01809451, "MEAN_MOTION_DDOT": 0}, "tle": {"line1": "1 66525U 25265K   25338.33335648 -.01809451  00000+0 -13823-1 0  9997", "line2": "2 66525  42.9995 103.7370 0001076 256.4139 192.1210 15.74415356  3649"}}, "geometry": {"type": "Point", "coordinates": [-117.79528546056073, 30.68991066797853]}}, {"type": "Feature", "properties": {"norad_id": 66526, "name": "STARLINK-35932", "group": "last-30-days", "lat": 29.666701761522656, "lon": -115.91884756253802, "alt_km": 346.13652100544186, "timestamp": "2025-12-04T15:47:52.869556+00:00", "meta": {"OBJECT_NAME": "STARLINK-35932", "OBJECT_ID": "2025-265L", "EPOCH": "2025-12-04T08:00:01.999872", "MEAN_MOTION": 15.74422848, "ECCENTRICITY": 0.00016145, "INCLINATION": 42.9996, "RA_OF_ASC_NODE": 103.7323, "ARG_OF_PERICENTER": 266.8006, "MEAN_ANOMALY": 183.6541, "EPHEMERIS_TYPE": 0, "CLASSIFICATION_TYPE": "U", "NORAD_CAT_ID": 66526, "ELEMENT_SET_NO": 999, "REV_AT_EPOCH": 353, "BSTAR": -0.013939557, "MEAN_MOTION_DOT": -0.01823724, "MEAN_MOTION_DDOT": 0}, "tle": {"line1": "1 66526U 25265L   25338.33335648 -.01823724  00000+0 -13940-1 0  9997", "line2": "2 66526  42.9996 103.7323 0001614 266.8006 183.6541 15.74422848  3539"}}, "geometry": {"type": "Point", "coordinates": [-115.91884756253802, 29.666701761522656]}}, {"type": "Feature", "properties": {"norad_id": 66527, "name": "STARLINK-35935", "group": "last-30-days", "lat": 28.618126228992697, "lon": -114.08210129554303, "alt_km": 345.7494750586611, "timestamp": "2025-12-04T15:47:52.869566+00:00", "meta": {"OBJECT_NAME": "STARLINK-35935", "OBJECT_ID": "2025-265M", "EPOCH": "2025-12-04T08:00:01.999872", "MEAN_MOTION": 15.74419084, "ECCENTRICITY": 7.186e-05, "INCLINATION": 42.9995, "RA_OF_ASC_NODE": 103.7277, "ARG_OF_PERICENTER": 252.0438, "MEAN_ANOMALY": 200.3211, "EPHEMERIS_TYPE": 0, "CLASSIFICATION_TYPE": "U", "NORAD_CAT_ID": 66527, "ELEMENT_SET_NO": 999, "REV_AT_EPOCH": 364, "BSTAR": -0.013832645, "MEAN_MOTION_DOT": -0.01810543, "MEAN_MOTION_DDOT": 0}, "tle": {"line1": "1 66527U 25265M   25338.33335648 -.01810543  00000+0 -13833-1 0  9994", "line2": "2 66527  42.9995 103.7277 0000718 252.0438 200.3211 15.74419084  3648"}}, "geometry": {"type": "Point", "coordinates": [-114.08210129554303, 28.618126228992697]}}, {"type": "Feature", "properties": {"norad_id": 66528, "name": "STARLINK-35928", "group": "last-30-days", "lat": 27.54690571000097, "lon": -112.2850160394123, "alt_km": 346.13216504345746, "timestamp": "2025-12-04T15:47:52.869578+00:00", "meta": {"OBJECT_NAME": "STARLINK-35928", "OBJECT_ID": "2025-265N", "EPOCH": "2025-12-04T08:00:01.999872", "MEAN_MOTION": 15.7442105, "ECCENTRICITY": 0.00011851, "INCLINATION": 42.9997, "RA_OF_ASC_NODE": 103.7227, "ARG_OF_PERICENTER": 261.9344, "MEAN_ANOMALY": 192.3503, "EPHEMERIS_TYPE": 0, "CLASSIFICATION_TYPE": "U", "NORAD_CAT_ID": 66528, "ELEMENT_SET_NO": 999, "REV_AT_EPOCH": 364, "BSTAR": -0.013884221, "MEAN_MOTION_DOT": -0.0181693, "MEAN_MOTION_DDOT": 0}, "tle": {"line1": "1 66528U 25265N   25338.33335648 -.01816930  00000+0 -13884-1 0  9997", "line2": "2 66528  42.9997 103.7227 0001185 261.9344 192.3503 15.74421050  3640"}}, "geometry": {"type": "Point", "coordinates": [-112.2850160394123, 27.54690571000097]}}, {"type": "Feature", "properties": {"norad_id": 66529, "name": "STARLINK-35933", "group": "last-30-days", "lat": 26.453713432868764, "lon": -110.52501203501741, "alt_km": 346.1599991169278, "timestamp": "2025-12-04T15:47:52.869590+00:00", "meta": {"OBJECT_NAME": "STARLINK-35933", "OBJECT_ID": "2025-265P", "EPOCH": "2025-12-04T08:00:01.999872", "MEAN_MOTION": 15.74420635, "ECCENTRICITY": 0.00011211, "INCLINATION": 42.9996, "RA_OF_ASC_NODE": 103.7175, "ARG_OF_PERICENTER": 256.6509, "MEAN_ANOMALY": 199.546, "EPHEMERIS_TYPE": 0, "CLASSIFICATION_TYPE": "U", "NORAD_CAT_ID": 66529, "ELEMENT_SET_NO": 999, "REV_AT_EPOCH": 364, "BSTAR": -0.013843886, "MEAN_MOTION_DOT": -0.01812244, "MEAN_MOTION_DDOT": 0}, "tle": {"line1": "1 66529U 25265P   25338.33335648 -.01812244  00000+0 -13844-1 0  9998", "line2": "2 66529  42.9996 103.7175 0001121 256.6509 199.5460 15.74420635  3645"}}, "geometry": {"type": "Point", "coordinates": [-110.52501203501741, 26.453713432868764]}}]}